start=new Date('2022-05-28T00:00:00.000Z').valueOf();
sats=[{"OBJECT_TYPE":"PAYLOAD","RA_OF_ASC_NODE":"240.9497","CENTER_NAME":"EARTH","MEAN_ANOMALY":"289.7623","SEMIMAJOR_AXIS":"6925.381","MEAN_MOTION":"15.06389524","TLE_LINE1":"1 48104U 21027N   22147.62792816  .00000047  00000-0  22062-4 0  9993","ELEMENT_SET_NO":"999","NORAD_CAT_ID":"48104","SITE":"AFETR","REF_FRAME":"TEME","PERIAPSIS":"546.217","OBJECT_ID":"2021-027N","REV_AT_EPOCH":"6432","FILE":"3468079","PERIOD":"95.593","OBJECT_NAME":"STARLINK-2439","EPOCH":"2022-05-27T15:04:12.993024","CLASSIFICATION_TYPE":"U","ECCENTRICITY":"0.00014850","INCLINATION":"53.0553","MEAN_MOTION_DOT":"0.00000047","EPHEMERIS_TYPE":"0","MEAN_MOTION_DDOT":"0.0000000000000","TIME_SYSTEM":"UTC","GP_ID":"204715905","MEAN_ELEMENT_THEORY":"SGP4","TLE_LINE2":"2 48104  53.0553 240.9497 0001485  70.3527 289.7623 15.06389524 64322","BSTAR":"0.00002206200000","APOAPSIS":"548.274","LAUNCH_DATE":"2021-04-07","DECAY_DATE":null,"COUNTRY_CODE":"US","ARG_OF_PERICENTER":"70.3527","RCS_SIZE":"LARGE"},{"RA_OF_ASC_NODE":"185.1671","OBJECT_TYPE":"PAYLOAD","SEMIMAJOR_AXIS":"6925.439","MEAN_ANOMALY":"306.2492","CENTER_NAME":"EARTH","OBJECT_ID":"2021-027P","PERIAPSIS":"545.972","REF_FRAME":"TEME","SITE":"AFETR","NORAD_CAT_ID":"48105","TLE_LINE1":"1 48105U 21027P   22147.80070823  .00005562  00000-0  39233-3 0  9995","ELEMENT_SET_NO":"999","MEAN_MOTION":"15.06370652","CLASSIFICATION_TYPE":"U","EPOCH":"2022-05-27T19:13:01.191072","OBJECT_NAME":"STARLINK-2440","PERIOD":"95.594","FILE":"3468079","REV_AT_EPOCH":"6511","EPHEMERIS_TYPE":"0","MEAN_MOTION_DOT":"0.00005562","ECCENTRICITY":"0.00019230","INCLINATION":"53.0541","GP_ID":"204714664","TIME_SYSTEM":"UTC","MEAN_MOTION_DDOT":"0.0000000000000","DECAY_DATE":null,"LAUNCH_DATE":"2021-04-07","APOAPSIS":"548.635","BSTAR":"0.00039233000000","TLE_LINE2":"2 48105  53.0541 185.1671 0001923  53.8675 306.2492 15.06370652 65110","MEAN_ELEMENT_THEORY":"SGP4","RCS_SIZE":"LARGE","ARG_OF_PERICENTER":"53.8675","COUNTRY_CODE":"US"},{"TLE_LINE2":"2 48106  53.0555 235.8422 0001442  58.6828 301.4302 15.06410905 64394","MEAN_ELEMENT_THEORY":"SGP4","APOAPSIS":"548.179","BSTAR":"-0.00001860600000","LAUNCH_DATE":"2021-04-07","DECAY_DATE":null,"COUNTRY_CODE":"US","ARG_OF_PERICENTER":"58.6828","RCS_SIZE":"LARGE","INCLINATION":"53.0555","ECCENTRICITY":"0.00014420","MEAN_MOTION_DOT":"-0.00000559","EPHEMERIS_TYPE":"0","MEAN_MOTION_DDOT":"0.0000000000000","TIME_SYSTEM":"UTC","GP_ID":"204714914","MEAN_MOTION":"15.06410905","TLE_LINE1":"1 48106U 21027Q   22147.65233398 -.00000559  00000-0 -18606-4 0  9992","ELEMENT_SET_NO":"999","REF_FRAME":"TEME","SITE":"AFETR","NORAD_CAT_ID":"48106","PERIAPSIS":"546.182","OBJECT_ID":"2021-027Q","REV_AT_EPOCH":"6439","OBJECT_NAME":"STARLINK-2442","PERIOD":"95.591","FILE":"3468079","EPOCH":"2022-05-27T15:39:21.655872","CLASSIFICATION_TYPE":"U","OBJECT_TYPE":"PAYLOAD","RA_OF_ASC_NODE":"235.8422","CENTER_NAME":"EARTH","MEAN_ANOMALY":"301.4302","SEMIMAJOR_AXIS":"6925.315"},{"INCLINATION":"53.0562","ECCENTRICITY":"0.00016250","EPHEMERIS_TYPE":"0","MEAN_MOTION_DOT":"0.00001041","TIME_SYSTEM":"UTC","GP_ID":"204678198","MEAN_MOTION_DDOT":"0.0000000000000","APOAPSIS":"548.401","BSTAR":"0.00008878800000","MEAN_ELEMENT_THEORY":"SGP4","TLE_LINE2":"2 48107  53.0562 236.3580 0001625  78.3232 281.7939 15.06379690 64374","DECAY_DATE":null,"LAUNCH_DATE":"2021-04-07","ARG_OF_PERICENTER":"78.3232","COUNTRY_CODE":"US","RCS_SIZE":"LARGE","OBJECT_TYPE":"PAYLOAD","RA_OF_ASC_NODE":"236.3580","MEAN_ANOMALY":"281.7939","CENTER_NAME":"EARTH","SEMIMAJOR_AXIS":"6925.411","ELEMENT_SET_NO":"999","TLE_LINE1":"1 48107U 21027R   22147.53439752  .00001041  00000-0  88788-4 0  9995","MEAN_MOTION":"15.06379690","PERIAPSIS":"546.150","OBJECT_ID":"2021-027R","NORAD_CAT_ID":"48107","SITE":"AFETR","REF_FRAME":"TEME","FILE":"3467585","PERIOD":"95.593","OBJECT_NAME":"STARLINK-2443","REV_AT_EPOCH":"6437","CLASSIFICATION_TYPE":"U","EPOCH":"2022-05-27T12:49:31.945728"},{"RA_OF_ASC_NODE":"245.8868","OBJECT_TYPE":"PAYLOAD","SEMIMAJOR_AXIS":"6925.380","MEAN_ANOMALY":"290.1918","CENTER_NAME":"EARTH","OBJECT_ID":"2021-027S","PERIAPSIS":"546.204","SITE":"AFETR","REF_FRAME":"TEME","NORAD_CAT_ID":"48108","TLE_LINE1":"1 48108U 21027S   22147.64037109  .00000109  00000-0  26221-4 0  9996","ELEMENT_SET_NO":"999","MEAN_MOTION":"15.06389583","CLASSIFICATION_TYPE":"U","EPOCH":"2022-05-27T15:22:08.062176","OBJECT_NAME":"STARLINK-2444","PERIOD":"95.593","FILE":"3468079","REV_AT_EPOCH":"6424","EPHEMERIS_TYPE":"0","MEAN_MOTION_DOT":"0.00000109","INCLINATION":"53.0556","ECCENTRICITY":"0.00015040","GP_ID":"204716405","TIME_SYSTEM":"UTC","MEAN_MOTION_DDOT":"0.0000000000000","DECAY_DATE":null,"LAUNCH_DATE":"2021-04-07","BSTAR":"0.00002622100000","APOAPSIS":"548.287","TLE_LINE2":"2 48108  53.0556 245.8868 0001504  69.9233 290.1918 15.06389583 64244","MEAN_ELEMENT_THEORY":"SGP4","RCS_SIZE":"LARGE","ARG_OF_PERICENTER":"69.9233","COUNTRY_CODE":"US"},{"SEMIMAJOR_AXIS":"6925.364","CENTER_NAME":"EARTH","MEAN_ANOMALY":"295.3481","RA_OF_ASC_NODE":"255.2280","OBJECT_TYPE":"PAYLOAD","EPOCH":"2022-05-27T18:53:05.358912","CLASSIFICATION_TYPE":"U","REV_AT_EPOCH":"6413","PERIOD":"95.592","OBJECT_NAME":"STARLINK-2445","FILE":"3468079","SITE":"AFETR","REF_FRAME":"TEME","NORAD_CAT_ID":"48109","OBJECT_ID":"2021-027T","PERIAPSIS":"546.134","MEAN_MOTION":"15.06394832","TLE_LINE1":"1 48109U 21027T   22147.78686758  .00001593  00000-0  12581-3 0  9993","ELEMENT_SET_NO":"999","MEAN_MOTION_DDOT":"0.0000000000000","GP_ID":"204715164","TIME_SYSTEM":"UTC","MEAN_MOTION_DOT":"0.00001593","EPHEMERIS_TYPE":"0","ECCENTRICITY":"0.00015810","INCLINATION":"53.0549","RCS_SIZE":"LARGE","COUNTRY_CODE":"US","ARG_OF_PERICENTER":"64.7671","LAUNCH_DATE":"2021-04-07","DECAY_DATE":null,"TLE_LINE2":"2 48109  53.0549 255.2280 0001581  64.7671 295.3481 15.06394832 64137","MEAN_ELEMENT_THEORY":"SGP4","APOAPSIS":"548.324","BSTAR":"0.00012581000000"},{"EPHEMERIS_TYPE":"0","MEAN_MOTION_DOT":"0.00001513","INCLINATION":"53.0542","ECCENTRICITY":"0.00014370","TIME_SYSTEM":"UTC","GP_ID":"204715414","MEAN_MOTION_DDOT":"0.0000000000000","DECAY_DATE":null,"LAUNCH_DATE":"2021-04-07","APOAPSIS":"548.244","BSTAR":"0.00012048000000","MEAN_ELEMENT_THEORY":"SGP4","TLE_LINE2":"2 48110  53.0542 245.6379 0001437  65.5036 294.6103 15.06388548 64262","RCS_SIZE":"LARGE","ARG_OF_PERICENTER":"65.5036","COUNTRY_CODE":"US","RA_OF_ASC_NODE":"245.6379","OBJECT_TYPE":"PAYLOAD","SEMIMAJOR_AXIS":"6925.384","MEAN_ANOMALY":"294.6103","CENTER_NAME":"EARTH","OBJECT_ID":"2021-027U","PERIAPSIS":"546.253","NORAD_CAT_ID":"48110","SITE":"AFETR","REF_FRAME":"TEME","TLE_LINE1":"1 48110U 21027U   22147.69565550  .00001513  00000-0  12048-3 0  9991","ELEMENT_SET_NO":"999","MEAN_MOTION":"15.06388548","CLASSIFICATION_TYPE":"U","EPOCH":"2022-05-27T16:41:44.635200","FILE":"3468079","PERIOD":"95.593","OBJECT_NAME":"STARLINK-2447","REV_AT_EPOCH":"6426"},{"MEAN_MOTION_DOT":"0.00001906","EPHEMERIS_TYPE":"0","ECCENTRICITY":"0.00013440","INCLINATION":"53.0548","MEAN_MOTION_DDOT":"0.0000000000000","TIME_SYSTEM":"UTC","GP_ID":"204715663","LAUNCH_DATE":"2021-04-07","DECAY_DATE":null,"MEAN_ELEMENT_THEORY":"SGP4","TLE_LINE2":"2 48111  53.0548 245.3411 0001344  69.0415 291.0718 15.06401355 64276","APOAPSIS":"548.140","BSTAR":"0.00014682000000","RCS_SIZE":"LARGE","COUNTRY_CODE":"US","ARG_OF_PERICENTER":"69.0415","RA_OF_ASC_NODE":"245.3411","OBJECT_TYPE":"PAYLOAD","SEMIMAJOR_AXIS":"6925.344","CENTER_NAME":"EARTH","MEAN_ANOMALY":"291.0718","NORAD_CAT_ID":"48111","SITE":"AFETR","REF_FRAME":"TEME","OBJECT_ID":"2021-027V","PERIAPSIS":"546.279","TLE_LINE1":"1 48111U 21027V   22147.75462016  .00001906  00000-0  14682-3 0  9994","MEAN_MOTION":"15.06401355","ELEMENT_SET_NO":"999","EPOCH":"2022-05-27T18:06:39.181824","CLASSIFICATION_TYPE":"U","REV_AT_EPOCH":"6427","FILE":"3468079","PERIOD":"95.592","OBJECT_NAME":"STARLINK-2448"},{"MEAN_MOTION":"15.06387015","TLE_LINE1":"1 48112U 21027W   22147.79838277  .00000175  00000-0  30671-4 0  9999","ELEMENT_SET_NO":"999","PERIAPSIS":"546.201","OBJECT_ID":"2021-027W","NORAD_CAT_ID":"48112","REF_FRAME":"TEME","SITE":"AFETR","FILE":"3468079","OBJECT_NAME":"STARLINK-2449","PERIOD":"95.593","REV_AT_EPOCH":"6406","CLASSIFICATION_TYPE":"U","EPOCH":"2022-05-27T19:09:40.271328","OBJECT_TYPE":"PAYLOAD","RA_OF_ASC_NODE":"260.1683","MEAN_ANOMALY":"304.1952","CENTER_NAME":"EARTH","SEMIMAJOR_AXIS":"6925.388","APOAPSIS":"548.306","BSTAR":"0.00003067100000","MEAN_ELEMENT_THEORY":"SGP4","TLE_LINE2":"2 48112  53.0549 260.1683 0001520  55.9181 304.1952 15.06387015 64063","DECAY_DATE":null,"LAUNCH_DATE":"2021-04-07","ARG_OF_PERICENTER":"55.9181","COUNTRY_CODE":"US","RCS_SIZE":"LARGE","ECCENTRICITY":"0.00015200","INCLINATION":"53.0549","EPHEMERIS_TYPE":"0","MEAN_MOTION_DOT":"0.00000175","GP_ID":"204715906","TIME_SYSTEM":"UTC","MEAN_MOTION_DDOT":"0.0000000000000"},{"EPOCH":"2022-05-27T13:13:25.075488","CLASSIFICATION_TYPE":"U","REV_AT_EPOCH":"6408","FILE":"3467585","PERIOD":"95.592","OBJECT_NAME":"STARLINK-2450","NORAD_CAT_ID":"48113","REF_FRAME":"TEME","SITE":"AFETR","OBJECT_ID":"2021-027X","PERIAPSIS":"546.155","TLE_LINE1":"1 48113U 21027X   22147.55098467 -.00000065  00000-0  14508-4 0  9993","ELEMENT_SET_NO":"999","MEAN_MOTION":"15.06397456","SEMIMAJOR_AXIS":"6925.356","CENTER_NAME":"EARTH","MEAN_ANOMALY":"280.6872","RA_OF_ASC_NODE":"256.2850","OBJECT_TYPE":"PAYLOAD","RCS_SIZE":"LARGE","COUNTRY_CODE":"US","ARG_OF_PERICENTER":"79.4291","LAUNCH_DATE":"2021-04-07","DECAY_DATE":null,"MEAN_ELEMENT_THEORY":"SGP4","TLE_LINE2":"2 48113  53.0556 256.2850 0001540  79.4291 280.6872 15.06397456 64080","APOAPSIS":"548.288","BSTAR":"0.00001450800000","MEAN_MOTION_DDOT":"0.0000000000000","TIME_SYSTEM":"UTC","GP_ID":"204679194","MEAN_MOTION_DOT":"-0.00000065","EPHEMERIS_TYPE":"0","INCLINATION":"53.0556","ECCENTRICITY":"0.00015400"}];
